ACS3                    
1 59588U 24077B   24177.73355491  .00000061  00000+0  10578-3 0  9993
2 59588  97.4059 243.9288 0021512  72.9544 287.3962 13.67687808  8570
